#cP2014  2  1  0  0  0.00000000      96 ORBIT IGb08 HLM  IGS
## 1777 518400.00000000   900.00000000 56689 0.0000000000000
+   32   G01G02G03G04G05G06G07G08G09G10G11G12G13G14G15G16G17
+        G18G19G20G21G22G23G24G25G26G27G28G29G30G31G32  0  0
+          0  0  0  0  0  0  0  0  0  0  0  0  0  0  0  0  0
+          0  0  0  0  0  0  0  0  0  0  0  0  0  0  0  0  0
+          0  0  0  0  0  0  0  0  0  0  0  0  0  0  0  0  0
++         2  2  2  2  2  2  2  2  3  2  2  2  2  3  2  2  2
++         2  2  2  2  2  2  2  2  2  2  2  2  0  2  2  0  0
++         0  0  0  0  0  0  0  0  0  0  0  0  0  0  0  0  0
++         0  0  0  0  0  0  0  0  0  0  0  0  0  0  0  0  0
++         0  0  0  0  0  0  0  0  0  0  0  0  0  0  0  0  0
%c G  cc GPS ccc cccc cccc cccc cccc ccccc ccccc ccccc ccccc
%c cc cc ccc ccc cccc cccc cccc cccc ccccc ccccc ccccc ccccc
%f  1.2500000  1.025000000  0.00000000000  0.000000000000000
%f  0.0000000  0.000000000  0.00000000000  0.000000000000000
%i    0    0    0    0      0      0      0      0         0
%i    0    0    0    0      0      0      0      0         0
/* FINAL ORBIT COMBINATION FROM WEIGHTED AVERAGE OF:        
/* cod emr esa gfz grg jpl mit ngs sio                      
/* REFERENCED TO IGS TIME (IGST) AND TO WEIGHTED MEAN POLE: 
/* PCV:IGS08_1771 OL/AL:FES2004  NONE     Y  ORB:CMB CLK:CMB
*  2014  2  1  0  0  0.00000000
PG01 -21140.171833 -13649.615579  -8719.304664    104.045154 10 10 12 140       
PG02   1048.828904  16497.470507  21124.362301    476.028754  7  5  5 144       
PG03   1759.240972 -21014.760733 -16589.650089    319.848562  7  9  4 138       
PG04 -16210.677489   9116.612670  18742.004974      5.211216  8  8  7 143       
PG05   2215.521346  26032.227487   4248.584479   -390.329510  9  7  9 132       
PG06  10350.747358 -21646.280288 -10888.886190    258.144018  7  9  8 137       
PG07 -25605.546037  -5353.478751  -5435.393090    308.929774  8  7  9 101       
PG08 -21635.605414    880.902336 -15641.552526     11.669672 12 10  7 132       
PG09 -20879.961357   4483.420968 -16421.430089    302.208768 14 10 10 167       
PG10 -10738.445491  15303.957983  18370.140641   -112.382236  9  5  6 131       
PG11 -15915.752047 -13796.627280 -16781.481226   -460.423169  9  7  8 112       
PG12  11260.514602  21147.176648  11650.000735    183.664710  8 10  5 134       
PG13 -20728.236521   1087.196436  16519.036650     34.208500  8 10  9 126       
PG14  21917.960113 -14654.270393  -2267.462677    201.999916 10  8 10 116       
PG15   6481.890735  15004.997803 -20939.603160   -160.663917 10  8  8 140       
PG16  -1173.601981 -26054.208546   3868.977812   -233.279904  8 10  9 120       
PG17 -21140.084819  15768.406855  -1496.751028    -64.282319 10  6  9 112       
PG18  16261.718586   2599.469042 -20458.781473    299.326487  9 10  7 137       
PG19  -4146.114605 -15292.459341 -21373.665124   -435.925508  7  9  4 143       
PG20 -14514.212935 -18348.588142  12450.429439    157.784932  9  9  8 138       
PG21  25721.257943   3962.703681  -5834.733085   -341.414061  9  9  7 129       
PG22  13008.444915 -11433.385893 -19904.548629    210.424097  7  9  8 125       
PG23 -13547.042675  -8393.551434  21389.852152      7.837324  7  9  5  98       
PG24  17611.245305  15242.077646 -12854.218426    -22.540255 11  8 10 150       
PG25  15423.140058   9219.197061  19543.788544     12.253220  8 10  7 133       
PG26  -6842.608339  19374.982954 -17304.012912    178.126247 11  8  6 136       
PG27   8315.839151 -20723.461951 -14359.243782    -17.047579  8  8  9 145       
PG28 -13091.734657   7720.157795 -21155.467248    329.028991  9 10  9 110       
PG29  18981.862334   1228.236799  18565.074908    507.548669  9  9 11 122       
PG30   8490.033704 -17964.979774  17363.043050 999999.999999
PG31  12819.199592 -10348.753977  21066.462301    332.879842  9  8  6 136       
PG32  -5759.367018 -25950.866125   3881.149474   -493.074980 11 10 11 117       
*  2014  2  1  0 15  0.00000000
PG01 -19991.294358 -13526.473612 -11250.970595    104.047352 11 10 12  92       
PG02  -1260.973635  15887.033384  21536.222963    476.030788  6  6  4 144       
PG03   2990.548607 -22225.342785 -14644.116695    319.853262  7  8  5 149       
PG04 -18193.942084   8364.298942  17259.246770      5.211383  7  8  7 127       
PG05   1775.514667  25467.364857   6987.425202   -390.328208  8  7  9 125       
PG06  11334.622328 -22263.313034  -8348.604756    258.157380  5  9  8 145       
PG07 -25987.985109  -5676.746666  -2619.908670    308.933525  8  7  9 122       
PG08 -23124.780432    142.478000 -13451.338870     11.670592 12 10  7 137       
PG09 -22440.117327   3891.211742 -14324.891823    302.210788 13 10 10 137       
PG10 -11384.257065  13135.674929  19633.395642   -112.384884  9  5  6 102       
PG11 -13980.656844 -14056.691212 -18247.204554   -460.426278  9  7  8 121       
PG12  11344.753307  22337.394713   9094.941154    183.666844  8  9  5 124       
PG13 -19204.034806   -222.400033  18274.502510     34.205110  7 10  8 114       
PG14  21718.363911 -14190.062521  -5111.228971    201.997111 10  8 10 110       
PG15   4751.776710  16605.612755 -20153.567773   -160.665559 10  7  8 132       
PG16   -867.725799 -25485.700926   6711.400988   -233.278661  8  9  9 132       
PG17 -21030.435558  15338.484212  -4354.367634    -64.285276 10  6  9 109       
PG18  16734.454853   4943.624978 -19676.959048    299.328309  9 10  7 133       
PG19  -2215.431073 -16688.531037 -20558.589816   -435.927501  6  8  4 144       
PG20 -14608.487371 -19698.812854  10097.088712    157.787811  8  8  7 108       
PG21  26188.729366   4411.928478  -3125.864739   -341.416041  9  9  7 130       
PG22  13664.296907  -9147.276263 -20640.389624    210.426081  7  9  7 106       
PG23 -11758.409900 -10059.865814  21692.229832      7.834413  7  9  4 135       
PG24  16027.617946  14987.697470 -15033.955910    -22.541240 11  7 10 147       
PG25  15823.532811  11339.763979  18067.202693     12.255030  8 10  6 122       
PG26  -8328.849615  20341.968460 -15329.641870    178.116494 11  7  6 122       
PG27   9553.858080 -21617.515054 -12088.217671    -17.048955  7  8  8 153       
PG28 -13567.358651   5189.338807 -21622.703749    329.031889  9  9  9 121       
PG29  17382.154436   2732.649216  19928.147873    507.551268  8  9 10 120       
PG30   9069.840452 -15931.066882  18984.191273 999999.999999
PG31  14987.022215  -9567.561717  19995.844062    332.879801  9  8  5 124       
PG32  -5553.334692 -26257.695985   1101.943652   -493.069375 11 10 11 139       
*  2014  2  1  0 30  0.00000000
PG01 -18570.219266 -13399.194266 -13590.535252    104.049437 11  9 12 136       
PG02  -3628.068786  15385.652499  21587.011062    476.032610  6  6  4 141       
PG03   4033.738055 -23307.536928 -12452.833026    319.857264  7  8  5 134       
PG04 -20027.251751   7752.636492  15475.269962      5.211611  6  8  7 129       
PG05   1220.338923  24634.023442   9604.747877   -390.327114  8  6  8 124       
PG06  12097.922210 -22697.655263  -5661.026857    258.170579  4  8  8 137       
PG07 -26078.569927  -5897.371442    239.827500    308.937405  8  7  9 114       
PG08 -24408.734142   -415.504387 -11034.552436     11.670921 11  9  7 133       
PG09 -23793.202434   3442.726679 -11991.196759    302.212513 13 10 10 158       
PG10 -12165.851844  10882.556354  20545.632400   -112.387328  8  5  5 112       
PG11 -11915.161817 -14408.174744 -19412.142656   -460.428946  9  7  7 120       
PG12  11421.371071  23232.223251   6384.964907    183.669302  9  8  5 129       
PG13 -17615.128293  -1733.690251  19713.717907     34.201232  6 10  7 118       
PG14  21308.822993 -13499.053769  -7865.819462    201.994308 10  8  9 116       
PG15   3170.647687  18208.612479 -19020.048397   -160.667372 10  6  8 130       
PG16   -456.379002 -24625.181558   9435.789753   -233.277086  8  8  8 130       
PG17 -20713.590510  14677.114168  -7135.574941    -64.288105 10  7  9 104       
PG18  17281.603981   7154.339240 -18546.393659    299.330088  9 10  7 129       
PG19   -441.554173 -18112.725403 -19390.240826   -435.929654  6  8  4 134       
PG20 -14672.743171 -20782.456360   7569.197060    157.791047  8  8  7 108       
PG21  26379.204712   4762.436805   -364.214842   -341.418131  9  9  8 127       
PG22  14441.231746  -6834.019839 -21014.159873    210.427956  6  9  6 106       
PG23 -10045.484457 -11827.928566  21624.942266      7.831360  7  8  4 127       
PG24  14206.617330  14764.456244 -16956.108213    -22.541206 11  6  9 144       
PG25  16284.735445  13257.104755  16279.678000     12.256826  8  9  6 127       
PG26  -9588.851774  21235.698796 -13098.459171    178.106798 11  7  6 118       
PG27  10559.295582 -22378.942436  -9608.830943    -17.050312  6  8  8 133       
PG28 -14186.325888   2658.024035 -21695.619095    329.034701  9  9  8 130       
PG29  15767.902346   4413.105099  20949.250598    507.553848  8  9  9 112       
PG30   9804.940210 -13772.316155  20272.343945 999999.999999
PG31  17059.061371  -8944.963619  18588.691609    332.880156  8  8  5 120       
PG32  -5299.662620 -26270.212147  -1695.595972   -493.063824 10  9 11 139       
EOF
